{"type": "FeatureCollection", "features": [ {"type": "Feature", "properties": {"norad_id": 28649, "name": "IRS-P5 (CARTOSAT-1)", "group": "resource", "lat": -15.704178039311055, "lon": 24.726850613121268, "alt_km": 601.2364198802425, "timestamp": "2025-12-22T14:45:57.041375+00:00", "meta": {"OBJECT_NAME": "IRS-P5 (CARTOSAT-1)", "OBJECT_ID": "2005-017A", "EPOCH": "2025-12-22T01:56:47.867712", "MEAN_MOTION": 14.90434705, "ECCENTRICITY": 6.838e-05, "INCLINATION": 97.5483, "RA_OF_ASC_NODE": 22.0798, "ARG_OF_PERICENTER": 54.1039, "MEAN_ANOMALY": 306.0243, "EPHEMERIS_TYPE": 0, "CLASSIFICATION_TYPE": "U", "NORAD_CAT_ID": 28649, "ELEMENT_SET_NO": 999, "REV_AT_EPOCH": 11743, "BSTAR": 0.00015409371, "MEAN_MOTION_DOT": 1.45e-05, "MEAN_MOTION_DDOT": 0}, "tle": {"line1": "1 28649U 05017A   25356.08110958  .00001450  00000+0  15409-3 0  9996", "line2": "2 28649  97.5483  22.0798 0000683  54.1039 306.0243 14.90434705117435"}}, "geometry": {"type": "Point", "coordinates": [24.726850613121268, -15.704178039311055]}}, {"type": "Feature", "properties": {"norad_id": 28893, "name": "SINAH 1", "group": "resource", "lat": 59.751506637216494, "lon": -40.374542778987355, "alt_km": 663.7165561047668, "timestamp": "2025-12-22T14:45:57.041386+00:00", "meta": {"OBJECT_NAME": "SINAH 1", "OBJECT_ID": "2005-043D", "EPOCH": "2025-12-22T06:01:21.627264", "MEAN_MOTION": 14.6397211, "ECCENTRICITY": 0.00156751, "INCLINATION": 98.2609, "RA_OF_ASC_NODE": 124.8338, "ARG_OF_PERICENTER": 109.2214, "MEAN_ANOMALY": 251.0686, "EPHEMERIS_TYPE": 0, "CLASSIFICATION_TYPE": "U", "NORAD_CAT_ID": 28893, "ELEMENT_SET_NO": 999, "REV_AT_EPOCH": 7463, "BSTAR": 8.8596466e-05, "MEAN_MOTION_DOT": 4.16e-06, "MEAN_MOTION_DDOT": 0}, "tle": {"line1": "1 28893U 05043D   25356.25094476  .00000416  00000+0  88596-4 0  9990", "line2": "2 28893  98.2609 124.8338 0015675 109.2214 251.0686 14.63972110 74630"}}, "geometry": {"type": "Point", "coordinates": [-40.374542778987355, 59.751506637216494]}}, {"type": "Feature", "properties": {"norad_id": 29079, "name": "EROS B", "group": "resource", "lat": -73.25614112204401, "lon": 139.07621002388, "alt_km": 360.0086145867508, "timestamp": "2025-12-22T14:45:57.041397+00:00", "meta": {"OBJECT_NAME": "EROS B", "OBJECT_ID": "2006-014A", "EPOCH": "2025-12-22T07:26:30.956064", "MEAN_MOTION": 15.71235558, "ECCENTRICITY": 0.0003822, "INCLINATION": 97.3463, "RA_OF_ASC_NODE": 113.3607, "ARG_OF_PERICENTER": 311.1598, "MEAN_ANOMALY": 48.9335, "EPHEMERIS_TYPE": 0, "CLASSIFICATION_TYPE": "U", "NORAD_CAT_ID": 29079, "ELEMENT_SET_NO": 999, "REV_AT_EPOCH": 9230, "BSTAR": 0.0014744142, "MEAN_MOTION_DOT": 0.00190073, "MEAN_MOTION_DDOT": 0}, "tle": {"line1": "1 29079U 06014A   25356.31008051  .00190073  00000+0  14744-2 0  9998", "line2": "2 29079  97.3463 113.3607 0003822 311.1598  48.9335 15.71235558 92303"}}, "geometry": {"type": "Point", "coordinates": [139.07621002388, -73.25614112204401]}}, {"type": "Feature", "properties": {"norad_id": 29228, "name": "RESURS-DK 1", "group": "resource", "lat": -25.781813715114794, "lon": 66.14716086527545, "alt_km": 533.9243014795857, "timestamp": "2025-12-22T14:45:57.041409+00:00", "meta": {"OBJECT_NAME": "RESURS-DK 1", "OBJECT_ID": "2006-021A", "EPOCH": "2025-12-22T05:21:44.466048", "MEAN_MOTION": 15.12210108, "ECCENTRICITY": 0.0006862, "INCLINATION": 69.9337, "RA_OF_ASC_NODE": 77.3289, "ARG_OF_PERICENTER": 250.5705, "MEAN_ANOMALY": 109.472, "EPHEMERIS_TYPE": 0, "CLASSIFICATION_TYPE": "U", "NORAD_CAT_ID": 29228, "ELEMENT_SET_NO": 999, "REV_AT_EPOCH": 7581, "BSTAR": 0.00015283625, "MEAN_MOTION_DOT": 2.54e-05, "MEAN_MOTION_DDOT": 0}, "tle": {"line1": "1 29228U 06021A   25356.22343132  .00002540  00000+0  15284-3 0  9996", "line2": "2 29228  69.9337  77.3289 0006862 250.5705 109.4720 15.12210108 75819"}}, "geometry": {"type": "Point", "coordinates": [66.14716086527545, -25.781813715114794]}}, {"type": "Feature", "properties": {"norad_id": 29268, "name": "ARIRANG-2 (KOMPSAT-2)", "group": "resource", "lat": 42.585760839148655, "lon": 177.34486650690678, "alt_km": 680.8841792795292, "timestamp": "2025-12-22T14:45:57.041420+00:00", "meta": {"OBJECT_NAME": "ARIRANG-2 (KOMPSAT-2)", "OBJECT_ID": "2006-031A", "EPOCH": "2025-12-22T07:09:35.922816", "MEAN_MOTION": 14.6450077, "ECCENTRICITY": 0.00131462, "INCLINATION": 97.8252, "RA_OF_ASC_NODE": 184.3049, "ARG_OF_PERICENTER": 276.269, "MEAN_ANOMALY": 256.9627, "EPHEMERIS_TYPE": 0, "CLASSIFICATION_TYPE": "U", "NORAD_CAT_ID": 29268, "ELEMENT_SET_NO": 999, "REV_AT_EPOCH": 3558, "BSTAR": 3.4426414e-05, "MEAN_MOTION_DOT": 1.38e-06, "MEAN_MOTION_DDOT": 0}, "tle": {"line1": "1 29268U 06031A   25356.29833244  .00000138  00000+0  34426-4 0  9997", "line2": "2 29268  97.8252 184.3049 0013146 276.2690 256.9627 14.64500770 35580"}}, "geometry": {"type": "Point", "coordinates": [177.34486650690678, 42.585760839148655]}}, {"type": "Feature", "properties": {"norad_id": 29709, "name": "LAPAN-TUBSAT", "group": "resource", "lat": 9.50591069608148, "lon": -14.396095979479881, "alt_km": 605.4989526831068, "timestamp": "2025-12-22T14:45:57.041431+00:00", "meta": {"OBJECT_NAME": "LAPAN-TUBSAT", "OBJECT_ID": "2007-001A", "EPOCH": "2025-12-22T05:01:28.024032", "MEAN_MOTION": 14.85685795, "ECCENTRICITY": 0.00133633, "INCLINATION": 98.1254, "RA_OF_ASC_NODE": 346.5605, "ARG_OF_PERICENTER": 46.2956, "MEAN_ANOMALY": 313.9363, "EPHEMERIS_TYPE": 0, "CLASSIFICATION_TYPE": "U", "NORAD_CAT_ID": 29709, "ELEMENT_SET_NO": 999, "REV_AT_EPOCH": 2487, "BSTAR": 0.0001482449, "MEAN_MOTION_DOT": 1.23e-05, "MEAN_MOTION_DDOT": 0}, "tle": {"line1": "1 29709U 07001A   25356.20935213  .00001230  00000+0  14824-3 0  9998", "line2": "2 29709  98.1254 346.5605 0013363  46.2956 313.9363 14.85685795 24872"}}, "geometry": {"type": "Point", "coordinates": [-14.396095979479881, 9.50591069608148]}}, {"type": "Feature", "properties": {"norad_id": 31113, "name": "HAIYANG-1B", "group": "resource", "lat": 65.62753838966609, "lon": 179.36038616965013, "alt_km": 784.3100856113051, "timestamp": "2025-12-22T14:45:57.041442+00:00", "meta": {"OBJECT_NAME": "HAIYANG-1B", "OBJECT_ID": "2007-010A", "EPOCH": "2025-12-22T05:51:00.023328", "MEAN_MOTION": 14.30968097, "ECCENTRICITY": 0.00137647, "INCLINATION": 98.3325, "RA_OF_ASC_NODE": 340.1296, "ARG_OF_PERICENTER": 10.889, "MEAN_ANOMALY": 349.2589, "EPHEMERIS_TYPE": 0, "CLASSIFICATION_TYPE": "U", "NORAD_CAT_ID": 31113, "ELEMENT_SET_NO": 999, "REV_AT_EPOCH": 97532, "BSTAR": 5.281912e-05, "MEAN_MOTION_DOT": 9.7e-07, "MEAN_MOTION_DDOT": 0}, "tle": {"line1": "1 31113U 07010A   25356.24375027  .00000097  00000+0  52819-4 0  9992", "line2": "2 31113  98.3325 340.1296 0013764  10.8890 349.2589 14.30968097975326"}}, "geometry": {"type": "Point", "coordinates": [179.36038616965013, 65.62753838966609]}}, {"type": "Feature", "properties": {"norad_id": 31598, "name": "COSMO-SKYMED 1", "group": "resource", "lat": -34.64580513746054, "lon": -172.42563096529443, "alt_km": 586.4859423710786, "timestamp": "2025-12-22T14:45:57.041459+00:00", "meta": {"OBJECT_NAME": "COSMO-SKYMED 1", "OBJECT_ID": "2007-023A", "EPOCH": "2025-12-22T06:53:41.620992", "MEAN_MOTION": 14.95835892, "ECCENTRICITY": 0.00015034, "INCLINATION": 97.8839, "RA_OF_ASC_NODE": 181.7495, "ARG_OF_PERICENTER": 80.8805, "MEAN_ANOMALY": 279.2586, "EPHEMERIS_TYPE": 0, "CLASSIFICATION_TYPE": "U", "NORAD_CAT_ID": 31598, "ELEMENT_SET_NO": 999, "REV_AT_EPOCH": 333, "BSTAR": 0.00032492435, "MEAN_MOTION_DOT": 3.57e-05, "MEAN_MOTION_DDOT": 0}, "tle": {"line1": "1 31598U 07023A   25356.28728728  .00003570  00000+0  32492-3 0  9990", "line2": "2 31598  97.8839 181.7495 0001503  80.8805 279.2586 14.95835892  3337"}}, "geometry": {"type": "Point", "coordinates": [-172.42563096529443, -34.64580513746054]}}, {"type": "Feature", "properties": {"norad_id": 31698, "name": "TERRASAR-X", "group": "resource", "lat": 82.5312111646388, "lon": -84.1075619064013, "alt_km": 499.6036634134098, "timestamp": "2025-12-22T14:45:57.041471+00:00", "meta": {"OBJECT_NAME": "TERRASAR-X", "OBJECT_ID": "2007-026A", "EPOCH": "2025-12-21T13:04:48.918432", "MEAN_MOTION": 15.19155537, "ECCENTRICITY": 0.0001908, "INCLINATION": 97.4453, "RA_OF_ASC_NODE": 0.797, "ARG_OF_PERICENTER": 92.2081, "MEAN_ANOMALY": 267.9372, "EPHEMERIS_TYPE": 0, "CLASSIFICATION_TYPE": "U", "NORAD_CAT_ID": 31698, "ELEMENT_SET_NO": 999, "REV_AT_EPOCH": 2625, "BSTAR": 3.2984e-05, "MEAN_MOTION_DOT": 6.26e-06, "MEAN_MOTION_DDOT": 0}, "tle": {"line1": "1 31698U 07026A   25355.54501063  .00000626  00000+0  32984-4 0  9999", "line2": "2 31698  97.4453   0.7970 0001908  92.2081 267.9372 15.19155537 26257"}}, "geometry": {"type": "Point", "coordinates": [-84.1075619064013, 82.5312111646388]}}, {"type": "Feature", "properties": {"norad_id": 32060, "name": "WORLDVIEW-1 (WV-1)", "group": "resource", "lat": -77.20025918895054, "lon": 148.75459648271317, "alt_km": 501.1479746024961, "timestamp": "2025-12-22T14:45:57.041481+00:00", "meta": {"OBJECT_NAME": "WORLDVIEW-1 (WV-1)", "OBJECT_ID": "2007-041A", "EPOCH": "2025-12-22T07:14:04.847136", "MEAN_MOTION": 15.23906733, "ECCENTRICITY": 0.00033647, "INCLINATION": 97.3828, "RA_OF_ASC_NODE": 113.6449, "ARG_OF_PERICENTER": 5.192, "MEAN_ANOMALY": 354.9352, "EPHEMERIS_TYPE": 0, "CLASSIFICATION_TYPE": "U", "NORAD_CAT_ID": 32060, "ELEMENT_SET_NO": 999, "REV_AT_EPOCH": 1593, "BSTAR": 0.00033477343, "MEAN_MOTION_DOT": 8.019e-05, "MEAN_MOTION_DDOT": 0}, "tle": {"line1": "1 32060U 07041A   25356.30144499  .00008019  00000+0  33477-3 0  9992", "line2": "2 32060  97.3828 113.6449 0003364   5.1920 354.9352 15.23906733 15939"}}, "geometry": {"type": "Point", "coordinates": [148.75459648271317, -77.20025918895054]}}]}